[
    {
        "Altitude(m)": 559391.9679833471,
        "Argument of Periapsis(deg)": 0.033114955553567506,
        "Eccentricity": 0.0,
        "Inclination(deg)": 53.0,
        "Latitude(deg)": 50.92939865755488,
        "Longitude(deg)": -101.5974617317671,
        "Mean Anomaly(deg)": -284.0874356621121,
        "RAAN(deg)": 294.9507168426401,
        "Satellite Name": "Starlink Shell 1 1299",
        "Satellite Number": 1299,
        "Semi-Major Axis(m)": 6931778.249405717,
        "Time(s)": 950
    },
    {
        "Altitude(m)": 559435.222691085,
        "Argument of Periapsis(deg)": 0.03346353403307874,
        "Eccentricity": 0.0,
        "Inclination(deg)": 53.0,
        "Latitude(deg)": 51.11813747232186,
        "Longitude(deg)": -100.69090632540194,
        "Mean Anomaly(deg)": -283.46060445855534,
        "RAAN(deg)": 294.95019807256267,
        "Satellite Name": "Starlink Shell 1 1299",
        "Satellite Number": 1299,
        "Semi-Major Axis(m)": 6931778.249405717,
        "Time(s)": 960
    },
    {
        "Altitude(m)": 559476.6876802694,
        "Argument of Periapsis(deg)": 0.03381211251258998,
        "Eccentricity": 0.0,
        "Inclination(deg)": 53.0,
        "Latitude(deg)": 51.299129446409346,
        "Longitude(deg)": -99.77676200397039,
        "Mean Anomaly(deg)": -282.8337732549987,
        "RAAN(deg)": 294.94967930248515,
        "Satellite Name": "Starlink Shell 1 1299",
        "Satellite Number": 1299,
        "Semi-Major Axis(m)": 6931778.249405717,
        "Time(s)": 970
    },
    {
        "Altitude(m)": 559516.3379087998,
        "Argument of Periapsis(deg)": 0.034160690992101214,
        "Eccentricity": 0.0,
        "Inclination(deg)": 53.0,
        "Latitude(deg)": 51.47226400118031,
        "Longitude(deg)": -98.85524435384232,
        "Mean Anomaly(deg)": -282.2069420514419,
        "RAAN(deg)": 294.9491605324077,
        "Satellite Name": "Starlink Shell 1 1299",
        "Satellite Number": 1299,
        "Semi-Major Axis(m)": 6931778.249405717,
        "Time(s)": 980
    },
    {
        "Altitude(m)": 559554.1494513993,
        "Argument of Periapsis(deg)": 0.034509269471612446,
        "Eccentricity": 0.0,
        "Inclination(deg)": 53.0,
        "Latitude(deg)": 51.637433423839596,
        "Longitude(deg)": -97.92658490403315,
        "Mean Anomaly(deg)": -281.5801108478852,
        "RAAN(deg)": 294.9486417623302,
        "Satellite Name": "Starlink Shell 1 1299",
        "Satellite Number": 1299,
        "Semi-Major Axis(m)": 6931778.249405717,
        "Time(s)": 990
    }
]